{
  "type": "FeatureCollection",
  "features": [
    {
      "type": "Feature",
      "properties": {
        "norad_id": 33412,
        "name": "COSMO-SKYMED 3",
        "group": "resource",
        "lat": -46.209887340537726,
        "lon": 5.385137225738452,
        "alt_km": 549.1035042119738,
        "timestamp": "2025-12-09T07:41:32.859547+00:00",
        "meta_object_name": "COSMO-SKYMED 3",
        "meta_object_id": "2008-054A",
        "meta_epoch": "2025-12-08T22:42:43.426944",
        "meta_mean_motion": 15.05299543,
        "meta_eccentricity": 0.00157964,
        "meta_inclination": 97.8453,
        "meta_ra_of_asc_node": 193.2746,
        "meta_arg_of_pericenter": 186.9404,
        "meta_mean_anomaly": 173.1606,
        "meta_ephemeris_type": 0,
        "meta_classification_type": "U",
        "meta_norad_cat_id": 33412,
        "meta_element_set_no": 999,
        "meta_rev_at_epoch": 92830,
        "meta_bstar": 0.00064453794,
        "meta_mean_motion_dot": 9.186e-05,
        "meta_mean_motion_ddot": 0,
        "tle_line1": "1 33412U 08054A   25342.94633596  .00009186  00000+0  64454-3 0  9990",
        "tle_line2": "2 33412  97.8453 193.2746 0015796 186.9404 173.1606 15.05299543928302"
      },
      "geometry": {
        "type": "Point",
        "coordinates": [
          5.385137225738452,
          -46.209887340537726
        ]
      }
    },
    {
      "type": "Feature",
      "properties": {
        "norad_id": 33446,
        "name": "YAOGAN-4",
        "group": "resource",
        "lat": 52.816310801692744,
        "lon": 104.02435708609748,
        "alt_km": 624.538169906773,
        "timestamp": "2025-12-09T07:41:32.859557+00:00",
        "meta_object_name": "YAOGAN-4",
        "meta_object_id": "2008-061A",
        "meta_epoch": "2025-12-08T19:47:11.729184",
        "meta_mean_motion": 14.82664885,
        "meta_eccentricity": 0.00139192,
        "meta_inclination": 97.9177,
        "meta_ra_of_asc_node": 272.962,
        "meta_arg_of_pericenter": 336.595,
        "meta_mean_anomaly": 23.4628,
        "meta_ephemeris_type": 0,
        "meta_classification_type": "U",
        "meta_norad_cat_id": 33446,
        "meta_element_set_no": 999,
        "meta_rev_at_epoch": 91745,
        "meta_bstar": 0.00038742009,
        "meta_mean_motion_dot": 3.075e-05,
        "meta_mean_motion_ddot": 0,
        "tle_line1": "1 33446U 08061A   25342.82444131  .00003075  00000+0  38742-3 0  9999",
        "tle_line2": "2 33446  97.9177 272.9620 0013919 336.5950  23.4628 14.82664885917457"
      },
      "geometry": {
        "type": "Point",
        "coordinates": [
          104.02435708609748,
          52.816310801692744
        ]
      }
    },
    {
      "type": "Feature",
      "properties": {
        "norad_id": 33492,
        "name": "GOSAT (IBUKI)",
        "group": "resource",
        "lat": 4.0359881139371145,
        "lon": 91.39718749710632,
        "alt_km": 671.2979350979476,
        "timestamp": "2025-12-09T07:41:32.859568+00:00",
        "meta_object_name": "GOSAT (IBUKI)",
        "meta_object_id": "2009-002A",
        "meta_epoch": "2025-12-08T21:51:20.647296",
        "meta_mean_motion": 14.67542674,
        "meta_eccentricity": 9.683e-05,
        "meta_inclination": 98.0769,
        "meta_ra_of_asc_node": 91.5672,
        "meta_arg_of_pericenter": 88.8433,
        "meta_mean_anomaly": 271.2882,
        "meta_ephemeris_type": 0,
        "meta_classification_type": "U",
        "meta_norad_cat_id": 33492,
        "meta_element_set_no": 999,
        "meta_rev_at_epoch": 90355,
        "meta_bstar": 0.00026074977,
        "meta_mean_motion_dot": 1.431e-05,
        "meta_mean_motion_ddot": 0,
        "tle_line1": "1 33492U 09002A   25342.91065564  .00001431  00000+0  26075-3 0  9995",
        "tle_line2": "2 33492  98.0769  91.5672 0000968  88.8433 271.2882 14.67542674903557"
      },
      "geometry": {
        "type": "Point",
        "coordinates": [
          91.39718749710632,
          4.0359881139371145
        ]
      }
    },
    {
      "type": "Feature",
      "properties": {
        "norad_id": 35681,
        "name": "DEIMOS-1",
        "group": "resource",
        "lat": -8.920590419576461,
        "lon": 145.30172684037933,
        "alt_km": 649.5346342470048,
        "timestamp": "2025-12-09T07:41:32.859579+00:00",
        "meta_object_name": "DEIMOS-1",
        "meta_object_id": "2009-041A",
        "meta_epoch": "2025-12-08T23:35:32.349120",
        "meta_mean_motion": 14.74944279,
        "meta_eccentricity": 0.00027139,
        "meta_inclination": 97.7145,
        "meta_ra_of_asc_node": 143.7609,
        "meta_arg_of_pericenter": 85.3579,
        "meta_mean_anomaly": 274.7941,
        "meta_ephemeris_type": 0,
        "meta_classification_type": "U",
        "meta_norad_cat_id": 35681,
        "meta_element_set_no": 999,
        "meta_rev_at_epoch": 87884,
        "meta_bstar": 0.00018870686,
        "meta_mean_motion_dot": 1.22e-05,
        "meta_mean_motion_ddot": 0,
        "tle_line1": "1 35681U 09041A   25342.98301330  .00001220  00000+0  18871-3 0  9992",
        "tle_line2": "2 35681  97.7145 143.7609 0002713  85.3579 274.7941 14.74944279878848"
      },
      "geometry": {
        "type": "Point",
        "coordinates": [
          145.30172684037933,
          -8.920590419576461
        ]
      }
    },
    {
      "type": "Feature",
      "properties": {
        "norad_id": 35682,
        "name": "DUBAISAT-1",
        "group": "resource",
        "lat": -68.3860111552569,
        "lon": 134.78330328207707,
        "alt_km": 648.1818631265096,
        "timestamp": "2025-12-09T07:41:32.859590+00:00",
        "meta_object_name": "DUBAISAT-1",
        "meta_object_id": "2009-041B",
        "meta_epoch": "2025-12-08T22:14:12.682752",
        "meta_mean_motion": 14.74586479,
        "meta_eccentricity": 0.00097882,
        "meta_inclination": 97.979,
        "meta_ra_of_asc_node": 113.6627,
        "meta_arg_of_pericenter": 327.7972,
        "meta_mean_anomaly": 32.2638,
        "meta_ephemeris_type": 0,
        "meta_classification_type": "U",
        "meta_norad_cat_id": 35682,
        "meta_element_set_no": 999,
        "meta_rev_at_epoch": 87705,
        "meta_bstar": 0.00030199695,
        "meta_mean_motion_dot": 1.963e-05,
        "meta_mean_motion_ddot": 0,
        "tle_line1": "1 35682U 09041B   25342.92653568  .00001963  00000+0  30200-3 0  9994",
        "tle_line2": "2 35682  97.9790 113.6627 0009788 327.7972  32.2638 14.74586479877058"
      },
      "geometry": {
        "type": "Point",
        "coordinates": [
          134.78330328207707,
          -68.3860111552569
        ]
      }
    },
    {
      "type": "Feature",
      "properties": {
        "norad_id": 35931,
        "name": "OCEANSAT-2",
        "group": "resource",
        "lat": -50.202390388983304,
        "lon": -5.737068496331993,
        "alt_km": 904.9664837220143,
        "timestamp": "2025-12-09T07:41:32.859601+00:00",
        "meta_object_name": "OCEANSAT-2",
        "meta_object_id": "2009-051A",
        "meta_epoch": "2025-12-08T23:21:23.998752",
        "meta_mean_motion": 13.99625606,
        "meta_eccentricity": 0.00163633,
        "meta_inclination": 98.2225,
        "meta_ra_of_asc_node": 343.9559,
        "meta_arg_of_pericenter": 54.86,
        "meta_mean_anomaly": 305.4097,
        "meta_ephemeris_type": 0,
        "meta_classification_type": "U",
        "meta_norad_cat_id": 35931,
        "meta_element_set_no": 999,
        "meta_rev_at_epoch": 85272,
        "meta_bstar": -6.194874e-05,
        "meta_mean_motion_dot": -1.28e-06,
        "meta_mean_motion_ddot": 0,
        "tle_line1": "1 35931U 09051A   25342.97319443 -.00000128  00000+0 -61949-4 0  9997",
        "tle_line2": "2 35931  98.2225 343.9559 0016363  54.8600 305.4097 13.99625606852720"
      },
      "geometry": {
        "type": "Point",
        "coordinates": [
          -5.737068496331993,
          -50.202390388983304
        ]
      }
    },
    {
      "type": "Feature",
      "properties": {
        "norad_id": 35946,
        "name": "WORLDVIEW-2 (WV-2)",
        "group": "resource",
        "lat": -36.82902384302374,
        "lon": 60.86435919484083,
        "alt_km": 774.0438130357952,
        "timestamp": "2025-12-09T07:41:32.859612+00:00",
        "meta_object_name": "WORLDVIEW-2 (WV-2)",
        "meta_object_id": "2009-055A",
        "meta_epoch": "2025-12-08T21:50:36.686112",
        "meta_mean_motion": 14.37649921,
        "meta_eccentricity": 0.00053787,
        "meta_inclination": 98.4764,
        "meta_ra_of_asc_node": 54.0477,
        "meta_arg_of_pericenter": 76.1323,
        "meta_mean_anomaly": 284.0462,
        "meta_ephemeris_type": 0,
        "meta_classification_type": "U",
        "meta_norad_cat_id": 35946,
        "meta_element_set_no": 999,
        "meta_rev_at_epoch": 84830,
        "meta_bstar": 0.00011462194,
        "meta_mean_motion_dot": 3.01e-06,
        "meta_mean_motion_ddot": 0,
        "tle_line1": "1 35946U 09055A   25342.91014683  .00000301  00000+0  11462-3 0  9994",
        "tle_line2": "2 35946  98.4764  54.0477 0005378  76.1323 284.0462 14.37649921848304"
      },
      "geometry": {
        "type": "Point",
        "coordinates": [
          60.86435919484083,
          -36.82902384302374
        ]
      }
    }
  ]
}